CCSDS_OMM_VERS = 2.0
CREATION_DATE  = 
ORIGINATOR     = 

OBJECT_NAME    = DELTA 2 R/B(1)
OBJECT_ID      = 1990-008B
CENTER_NAME    = EARTH
REF_FRAME      = TEME
TIME_SYSTEM    = UTC
MEAN_ELEMENT_THEORY = SGP/SGP4

EPOCH          = 2026-02-10T06:19:29.322048
MEAN_MOTION    = 15.52162436
ECCENTRICITY   = .0093532
INCLINATION    = 35.6055
RA_OF_ASC_NODE = 354.3158
ARG_OF_PERICENTER = 2.5651
MEAN_ANOMALY   = 357.5548

EPHEMERIS_TYPE = 0
CLASSIFICATION_TYPE = U
NORAD_CAT_ID   = 20453
ELEMENT_SET_NO = 999
REV_AT_EPOCH   = 92186
BSTAR          = .87954E-3
MEAN_MOTION_DOT = .66828E-3
MEAN_MOTION_DDOT = 0

CCSDS_OMM_VERS = 2.0
CREATION_DATE  = 
ORIGINATOR     = 

OBJECT_NAME    = COSMOS 2058
OBJECT_ID      = 1990-010A
CENTER_NAME    = EARTH
REF_FRAME      = TEME
TIME_SYSTEM    = UTC
MEAN_ELEMENT_THEORY = SGP/SGP4

EPOCH          = 2026-02-10T13:35:26.013984
MEAN_MOTION    = 15.11068318
ECCENTRICITY   = .00118793
INCLINATION    = 82.4645
RA_OF_ASC_NODE = 74.1481
ARG_OF_PERICENTER = 72.7958
MEAN_ANOMALY   = 287.4571

EPHEMERIS_TYPE = 0
CLASSIFICATION_TYPE = U
NORAD_CAT_ID   = 20465
ELEMENT_SET_NO = 999
REV_AT_EPOCH   = 93814
BSTAR          = .25720653E-3
MEAN_MOTION_DOT = .4337E-4
MEAN_MOTION_DDOT = 0

CCSDS_OMM_VERS = 2.0
CREATION_DATE  = 
ORIGINATOR     = 

OBJECT_NAME    = SL-14 R/B
OBJECT_ID      = 1990-010B
CENTER_NAME    = EARTH
REF_FRAME      = TEME
TIME_SYSTEM    = UTC
MEAN_ELEMENT_THEORY = SGP/SGP4

EPOCH          = 2026-02-10T04:02:37.599072
MEAN_MOTION    = 14.83544862
ECCENTRICITY   = .0020709
INCLINATION    = 82.5025
RA_OF_ASC_NODE = 293.2415
ARG_OF_PERICENTER = 34.3435
MEAN_ANOMALY   = 325.9114

EPHEMERIS_TYPE = 0
CLASSIFICATION_TYPE = U
NORAD_CAT_ID   = 20466
ELEMENT_SET_NO = 999
REV_AT_EPOCH   = 92440
BSTAR          = .56942E-4
MEAN_MOTION_DOT = .494E-5
MEAN_MOTION_DDOT = 0

CCSDS_OMM_VERS = 2.0
CREATION_DATE  = 
ORIGINATOR     = 

OBJECT_NAME    = SL-14 R/B
OBJECT_ID      = 1990-018B
CENTER_NAME    = EARTH
REF_FRAME      = TEME
TIME_SYSTEM    = UTC
MEAN_ELEMENT_THEORY = SGP/SGP4

EPOCH          = 2026-02-10T13:33:20.921472
MEAN_MOTION    = 14.82115900
ECCENTRICITY   = .00163768
INCLINATION    = 82.5181
RA_OF_ASC_NODE = 248.4487
ARG_OF_PERICENTER = 176.3404
MEAN_ANOMALY   = 183.7934

EPHEMERIS_TYPE = 0
CLASSIFICATION_TYPE = U
NORAD_CAT_ID   = 20511
ELEMENT_SET_NO = 999
REV_AT_EPOCH   = 91856
BSTAR          = .52216624E-4
MEAN_MOTION_DOT = .44E-5
MEAN_MOTION_DDOT = 0

CCSDS_OMM_VERS = 2.0
CREATION_DATE  = 
ORIGINATOR     = 

OBJECT_NAME    = HST
OBJECT_ID      = 1990-037B
CENTER_NAME    = EARTH
REF_FRAME      = TEME
TIME_SYSTEM    = UTC
MEAN_ELEMENT_THEORY = SGP/SGP4

EPOCH          = 2026-02-09T18:00:39.033792
MEAN_MOTION    = 15.29031698
ECCENTRICITY   = .00017443
INCLINATION    = 28.4664
RA_OF_ASC_NODE = 230.5298
ARG_OF_PERICENTER = 153.1588
MEAN_ANOMALY   = 206.9098

EPHEMERIS_TYPE = 0
CLASSIFICATION_TYPE = U
NORAD_CAT_ID   = 20580
ELEMENT_SET_NO = 999
REV_AT_EPOCH   = 76903
BSTAR          = .25799604E-3
MEAN_MOTION_DOT = .7715E-4
MEAN_MOTION_DDOT = 0

CCSDS_OMM_VERS = 2.0
CREATION_DATE  = 
ORIGINATOR     = 

OBJECT_NAME    = SL-16 R/B
OBJECT_ID      = 1990-046B
CENTER_NAME    = EARTH
REF_FRAME      = TEME
TIME_SYSTEM    = UTC
MEAN_ELEMENT_THEORY = SGP/SGP4

EPOCH          = 2026-02-10T08:08:50.906976
MEAN_MOTION    = 14.15007014
ECCENTRICITY   = .00148093
INCLINATION    = 71.0006
RA_OF_ASC_NODE = 355.3511
ARG_OF_PERICENTER = 337.8477
MEAN_ANOMALY   = 22.2004

EPHEMERIS_TYPE = 0
CLASSIFICATION_TYPE = U
NORAD_CAT_ID   = 20625
ELEMENT_SET_NO = 999
REV_AT_EPOCH   = 84452
BSTAR          = .16227938E-3
MEAN_MOTION_DOT = .267E-5
MEAN_MOTION_DDOT = 0

CCSDS_OMM_VERS = 2.0
CREATION_DATE  = 
ORIGINATOR     = 

OBJECT_NAME    = COSMOS 2084
OBJECT_ID      = 1990-055A
CENTER_NAME    = EARTH
REF_FRAME      = TEME
TIME_SYSTEM    = UTC
MEAN_ELEMENT_THEORY = SGP/SGP4

EPOCH          = 2026-02-10T08:34:46.836192
MEAN_MOTION    = 15.05471746
ECCENTRICITY   = .00214625
INCLINATION    = 62.7895
RA_OF_ASC_NODE = 68.7853
ARG_OF_PERICENTER = 184.2244
MEAN_ANOMALY   = 175.8679

EPHEMERIS_TYPE = 0
CLASSIFICATION_TYPE = U
NORAD_CAT_ID   = 20663
ELEMENT_SET_NO = 999
REV_AT_EPOCH   = 93220
BSTAR          = .1978655E-3
MEAN_MOTION_DOT = .2667E-4
MEAN_MOTION_DDOT = 0

CCSDS_OMM_VERS = 2.0
CREATION_DATE  = 
ORIGINATOR     = 

OBJECT_NAME    = SL-6 R/B(2)
OBJECT_ID      = 1990-055D
CENTER_NAME    = EARTH
REF_FRAME      = TEME
TIME_SYSTEM    = UTC
MEAN_ELEMENT_THEORY = SGP/SGP4

EPOCH          = 2026-02-10T07:16:33.323808
MEAN_MOTION    = 15.03450954
ECCENTRICITY   = .0020633
INCLINATION    = 62.7847
RA_OF_ASC_NODE = 346.9720
ARG_OF_PERICENTER = 339.2958
MEAN_ANOMALY   = 20.7303

EPHEMERIS_TYPE = 0
CLASSIFICATION_TYPE = U
NORAD_CAT_ID   = 20666
ELEMENT_SET_NO = 999
REV_AT_EPOCH   = 93407
BSTAR          = .22425E-3
MEAN_MOTION_DOT = .2882E-4
MEAN_MOTION_DDOT = 0

CCSDS_OMM_VERS = 2.0
CREATION_DATE  = 
ORIGINATOR     = 

OBJECT_NAME    = SL-8 R/B
OBJECT_ID      = 1990-078B
CENTER_NAME    = EARTH
REF_FRAME      = TEME
TIME_SYSTEM    = UTC
MEAN_ELEMENT_THEORY = SGP/SGP4

EPOCH          = 2026-02-10T03:36:20.661696
MEAN_MOTION    = 14.88150451
ECCENTRICITY   = .03668728
INCLINATION    = 82.9019
RA_OF_ASC_NODE = 276.0595
ARG_OF_PERICENTER = 106.2701
MEAN_ANOMALY   = 257.9199

EPHEMERIS_TYPE = 0
CLASSIFICATION_TYPE = U
NORAD_CAT_ID   = 20775
ELEMENT_SET_NO = 999
REV_AT_EPOCH   = 80520
BSTAR          = .43682396E-3
MEAN_MOTION_DOT = .14837E-3
MEAN_MOTION_DDOT = 0

CCSDS_OMM_VERS = 2.0
CREATION_DATE  = 
ORIGINATOR     = 

OBJECT_NAME    = SL-8 R/B
OBJECT_ID      = 1991-006B
CENTER_NAME    = EARTH
REF_FRAME      = TEME
TIME_SYSTEM    = UTC
MEAN_ELEMENT_THEORY = SGP/SGP4

EPOCH          = 2026-02-10T12:46:46.330752
MEAN_MOTION    = 13.77492142
ECCENTRICITY   = .00236938
INCLINATION    = 82.9436
RA_OF_ASC_NODE = 190.2358
ARG_OF_PERICENTER = 110.5742
MEAN_ANOMALY   = 318.6495

EPHEMERIS_TYPE = 0
CLASSIFICATION_TYPE = U
NORAD_CAT_ID   = 21088
ELEMENT_SET_NO = 999
REV_AT_EPOCH   = 76033
BSTAR          = .20518284E-4
MEAN_MOTION_DOT = .36E-6
MEAN_MOTION_DDOT = 0

CCSDS_OMM_VERS = 2.0
CREATION_DATE  = 
ORIGINATOR     = 

OBJECT_NAME    = OKEAN-3
OBJECT_ID      = 1991-039A
CENTER_NAME    = EARTH
REF_FRAME      = TEME
TIME_SYSTEM    = UTC
MEAN_ELEMENT_THEORY = SGP/SGP4

EPOCH          = 2026-02-10T08:20:10.843872
MEAN_MOTION    = 15.04584430
ECCENTRICITY   = .00165096
INCLINATION    = 82.5175
RA_OF_ASC_NODE = 3.3235
ARG_OF_PERICENTER = 66.7607
MEAN_ANOMALY   = 293.5356

EPHEMERIS_TYPE = 0
CLASSIFICATION_TYPE = U
NORAD_CAT_ID   = 21397
ELEMENT_SET_NO = 999
REV_AT_EPOCH   = 86092
BSTAR          = .26034952E-3
MEAN_MOTION_DOT = .369E-4
MEAN_MOTION_DDOT = 0

CCSDS_OMM_VERS = 2.0
CREATION_DATE  = 
ORIGINATOR     = 

OBJECT_NAME    = COSMOS 2151
OBJECT_ID      = 1991-042A
CENTER_NAME    = EARTH
REF_FRAME      = TEME
TIME_SYSTEM    = UTC
MEAN_ELEMENT_THEORY = SGP/SGP4

EPOCH          = 2026-02-10T12:48:49.048992
MEAN_MOTION    = 15.00000834
ECCENTRICITY   = .00134079
INCLINATION    = 82.4962
RA_OF_ASC_NODE = 109.8724
ARG_OF_PERICENTER = 145.9464
MEAN_ANOMALY   = 214.2623

EPHEMERIS_TYPE = 0
CLASSIFICATION_TYPE = U
NORAD_CAT_ID   = 21422
ELEMENT_SET_NO = 999
REV_AT_EPOCH   = 85912
BSTAR          = .17166009E-3
MEAN_MOTION_DOT = .2164E-4
MEAN_MOTION_DDOT = 0

